COMMENT,ORIGINATOR,NORAD_CAT_ID,OBJECT_NAME,OBJECT_TYPE,CLASSIFICATION_TYPE,INTLDES,EPOCH,EPOCH_MICROSECONDS,MEAN_MOTION,ECCENTRICITY,INCLINATION,RA_OF_ASC_NODE,ARG_OF_PERICENTER,MEAN_ANOMALY,EPHEMERIS_TYPE,ELEMENT_SET_NO,REV_AT_EPOCH,BSTAR,MEAN_MOTION_DOT,MEAN_MOTION_DDOT,FILE,TLE_LINE0,TLE_LINE1,TLE_LINE2,OBJECT_ID,OBJECT_NUMBER,SEMIMAJOR_AXIS,PERIOD,APOGEE,PERIGEE,DECAYED,date
GENERATED VIA SPACETRACK.ORG API,18 SPCS,52181,SPACEBEE-131,PAYLOAD,U,22033AA,2023/2/16 4:54,486784,15.32981938,0.0007449,97.36,130.4531,237.8915,122.1605,0,999,4884,0.0021002,0.00067399,0,3796585,0 SPACEBEE-131,1 52181U 22033AA  23047.20468156  .00067399  00000-0  21002-2 0  9996,2 52181  97.3600 130.4531 0007449 237.8915 122.1605 15.32981938 48840,2022-033AA,52181,6845.058,93.935,472.022,461.824,1,2023/4/3
GENERATED VIA SPACETRACK.ORG API,18 SPCS,52181,SPACEBEE-131,PAYLOAD,U,22033AA,2023/2/16 12:44,717408,15.33025024,0.0007414,97.3597,130.7787,237.223,122.8299,0,999,4891,0.0022322,0.00071778,0,3798293,0 SPACEBEE-131,1 52181U 22033AA  23047.53104997  .00071778  00000-0  22322-2 0  9994,2 52181  97.3597 130.7787 0007414 237.2230 122.8299 15.33025024 48917,2022-033AA,52181,6844.93,93.932,471.87,461.72,1,2023/4/4
GENERATED VIA SPACETRACK.ORG API,18 SPCS,52181,SPACEBEE-131,PAYLOAD,U,22033AA,2023/2/17 4:24,829440,15.33107216,0.0007472,97.3598,131.4278,234.762,125.2924,0,999,4899,0.0016063,0.00051627,0,3802344,0 SPACEBEE-131,1 52181U 22033AA  23048.18375960  .00051627  00000-0  16063-2 0  9992,2 52181  97.3598 131.4278 0007472 234.7620 125.2924 15.33107216 48994,2022-033AA,52181,6844.685,93.927,471.665,461.436,1,2023/4/5
GENERATED VIA SPACETRACK.ORG API,18 SPCS,52181,SPACEBEE-131,PAYLOAD,U,22033AA,2023/2/17 4:24,829440,15.33107216,0.0007472,97.3598,131.4278,234.762,125.2924,0,999,4901,0.0016063,0.00051627,0,3802730,0 SPACEBEE-131,1 52181U 22033AA  23048.18375960  .00051627  00000-0  16063-2 0  9992,2 52181  97.3598 131.4278 0007472 234.7620 125.2924 15.33107216 49018,2022-033AA,52181,6844.685,93.927,471.665,461.436,1,2023/4/6
GENERATED VIA SPACETRACK.ORG API,18 SPCS,52181,SPACEBEE-131,PAYLOAD,U,22033AA,2023/2/17 18:30,294496,15.33164998,0.0007374,97.3598,132.0126,232.5356,127.5216,0,999,4910,0.0014948,0.00048102,0,3804075,0 SPACEBEE-131,1 52181U 22033AA  23048.77117239  .00048102  00000-0  14948-2 0  9994,2 52181  97.3598 132.0126 0007374 232.5356 127.5216 15.33164998 49109,2022-033AA,52181,6844.513,93.923,471.426,461.331,1,2023/4/7
GENERATED VIA SPACETRACK.ORG API,18 SPCS,52181,SPACEBEE-131,PAYLOAD,U,22033AA,2023/2/18 3:54,150016,15.33201578,0.0007479,97.3595,132.4019,230.8693,129.1885,0,999,4914,0.001213,0.00039019,0,3806693,0 SPACEBEE-131,1 52181U 22033AA  23049.16276794  .00039019  00000-0  12130-2 0  9998,2 52181  97.3595 132.4019 0007479 230.8693 129.1885 15.33201578 49142,2022-033AA,52181,6844.405,93.921,471.388,461.151,1,2023/4/8
GENERATED VIA SPACETRACK.ORG API,18 SPCS,52181,SPACEBEE-131,PAYLOAD,U,22033AA,2023/2/18 3:54,150016,15.33201578,0.0007479,97.3595,132.4019,230.8693,129.1885,0,999,4916,0.001213,0.00039019,0,3807124,0 SPACEBEE-131,1 52181U 22033AA  23049.16276794  .00039019  00000-0  12130-2 0  9998,2 52181  97.3595 132.4019 0007479 230.8693 129.1885 15.33201578 49164,2022-033AA,52181,6844.405,93.921,471.388,461.151,1,2023/4/9
GENERATED VIA SPACETRACK.ORG API,18 SPCS,52181,SPACEBEE-131,PAYLOAD,U,22033AA,2023/2/18 22:42,818560,15.33264336,0.0007509,97.3595,133.1821,229.0411,131.0182,0,999,4928,0.001262,0.00040687,0,3811610,0 SPACEBEE-131,1 52181U 22033AA  23049.94593540  .00040687  00000-0  12620-2 0  9992,2 52181  97.3595 133.1821 0007509 229.0411 131.0182 15.33264336 49281,2022-033AA,52181,6844.218,93.917,471.222,460.943,1,2023/4/10
GENERATED VIA SPACETRACK.ORG API,18 SPCS,52181,SPACEBEE-131,PAYLOAD,U,22033AA,2023/2/19 22:11,906944,15.33343758,0.0007542,97.3594,134.1568,225.5595,134.5031,0,999,4941,0.001225,0.00039585,0,3813217,0 SPACEBEE-131,1 52181U 22033AA  23050.92484846  .00039585  00000-0  12250-2 0  9994,2 52181  97.3594 134.1568 0007542 225.5595 134.5031 15.33343758 49412,2022-033AA,52181,6843.981,93.912,471.008,460.685,1,2023/4/11
GENERATED VIA SPACETRACK.ORG API,18 SPCS,52181,SPACEBEE-131,PAYLOAD,U,22033AA,2023/2/20 4:27,315392,15.33367167,0.0007555,97.3594,134.4166,224.8254,135.2378,0,999,4947,0.001292,0.00041798,0,3815761,0 SPACEBEE-131,1 52181U 22033AA  23051.18588328  .00041798  00000-0  12920-2 0  9996,2 52181  97.3594 134.4166 0007555 224.8254 135.2378 15.33367167 49475,2022-033AA,52181,6843.912,93.911,470.947,460.606,1,2023/4/12
GENERATED VIA SPACETRACK.ORG API,18 SPCS,52181,SPACEBEE-131,PAYLOAD,U,22033AA,2023/2/20 23:15,668448,15.33431699,0.0007555,97.359,135.1963,221.8186,138.248,0,999,4957,0.0013186,0.00042752,0,3817364,0 SPACEBEE-131,1 52181U 22033AA  23051.96896607  .00042752  00000-0  13186-2 0  9990,2 52181  97.3590 135.1963 0007555 221.8186 138.2480 15.33431699 49575,2022-033AA,52181,6843.72,93.907,470.755,460.414,1,2023/4/13
GENERATED VIA SPACETRACK.ORG API,18 SPCS,52181,SPACEBEE-131,PAYLOAD,U,22033AA,2023/2/21 11:47,457888,15.33481207,0.00076,97.3588,135.7162,219.4378,140.6312,0,999,4967,0.0013676,0.00044423,0,3819803,0 SPACEBEE-131,1 52181U 22033AA  23052.49100067  .00044423  00000-0  13676-2 0  9998,2 52181  97.3588 135.7162 0007600 219.4378 140.6312 15.33481207 49678,2022-033AA,52181,6843.572,93.904,470.639,460.236,1,2023/4/14
GENERATED VIA SPACETRACK.ORG API,18 SPCS,52181,SPACEBEE-131,PAYLOAD,U,22033AA,2023/2/21 18:02,768544,15.3351028,0.0007592,97.3587,135.976,218.5269,141.5432,0,999,4969,0.0014731,0.00047921,0,3820897,0 SPACEBEE-131,1 52181U 22033AA  23052.75201121  .00047921  00000-0  14731-2 0  9999,2 52181  97.3587 135.9760 0007592 218.5269 141.5432 15.33510280 49691,2022-033AA,52181,6843.486,93.902,470.547,460.155,1,2023/4/15
GENERATED VIA SPACETRACK.ORG API,18 SPCS,52181,SPACEBEE-131,PAYLOAD,U,22033AA,2023/2/21 18:02,768544,15.3351028,0.0007592,97.3587,135.976,218.5269,141.5432,0,999,4971,0.0014731,0.00047921,0,3821329,0 SPACEBEE-131,1 52181U 22033AA  23052.75201121  .00047921  00000-0  14731-2 0  9999,2 52181  97.3587 135.9760 0007592 218.5269 141.5432 15.33510280 49714,2022-033AA,52181,6843.486,93.902,470.547,460.155,1,2023/4/16
GENERATED VIA SPACETRACK.ORG API,18 SPCS,52181,SPACEBEE-131,PAYLOAD,U,22033AA,2023/2/22 11:16,134048,15.33572115,0.0007637,97.3582,136.6908,215.8411,144.232,0,999,4982,0.0012953,0.00042179,0,3824148,0 SPACEBEE-131,1 52181U 22033AA  23053.46977007  .00042179  00000-0  12953-2 0  9995,2 52181  97.3582 136.6908 0007637 215.8411 144.2320 15.33572115 49823,2022-033AA,52181,6843.302,93.898,470.393,459.941,1,2023/4/17
GENERATED VIA SPACETRACK.ORG API,18 SPCS,52181,SPACEBEE-131,PAYLOAD,U,22033AA,2023/2/23 4:29,991360,15.33637805,0.0007667,97.3578,137.4055,213.6752,146.4004,0,999,4991,0.0014536,0.00047474,0,3827386,0 SPACEBEE-131,1 52181U 22033AA  23054.18749990  .00047474  00000-0  14536-2 0  9995,2 52181  97.3578 137.4055 0007667 213.6752 146.4004 15.33637805 49918,2022-033AA,52181,6843.107,93.894,470.218,459.725,1,2023/4/18
GENERATED VIA SPACETRACK.ORG API,18 SPCS,52181,SPACEBEE-131,PAYLOAD,U,22033AA,2023/2/23 4:29,991360,15.33637805,0.0007667,97.3578,137.4055,213.6752,146.4004,0,999,4993,0.0014536,0.00047474,0,3828819,0 SPACEBEE-131,1 52181U 22033AA  23054.18749990  .00047474  00000-0  14536-2 0  9995,2 52181  97.3578 137.4055 0007667 213.6752 146.4004 15.33637805 49930,2022-033AA,52181,6843.107,93.894,470.218,459.725,1,2023/4/19
GENERATED VIA SPACETRACK.ORG API,18 SPCS,52181,SPACEBEE-131,PAYLOAD,U,22033AA,2023/2/23 18:35,29536,15.33689505,0.0007691,97.3576,137.9904,211.4587,148.6197,0,999,5002,0.0013897,0.00045446,0,3830532,0 SPACEBEE-131,1 52181U 22033AA  23054.77471099  .00045446  00000-0  13897-2 0  9998,2 52181  97.3576 137.9904 0007691 211.4587 148.6197 15.33689505 50028,2022-033AA,52181,6842.953,93.891,470.081,459.555,1,2023/4/20
GENERATED VIA SPACETRACK.ORG API,18 SPCS,52181,SPACEBEE-131,PAYLOAD,U,22033AA,2023/2/24 3:59,325600,15.33730909,0.0007691,97.3575,138.3805,210.2783,149.8016,0,999,5008,0.0015213,0.00049851,0,3832867,0 SPACEBEE-131,1 52181U 22033AA  23055.16617275  .00049851  00000-0  15213-2 0  9998,2 52181  97.3575 138.3805 0007691 210.2783 149.8016 15.33730909 50081,2022-033AA,52181,6842.83,93.889,469.957,459.432,1,2023/4/21
GENERATED VIA SPACETRACK.ORG API,18 SPCS,52181,SPACEBEE-131,PAYLOAD,U,22033AA,2023/2/24 16:30,500096,15.3376995,0.000769,97.3575,138.9004,208.1219,151.9609,0,999,5014,0.001099,0.0003597,0,3833381,0 SPACEBEE-131,1 52181U 22033AA  23055.68810764  .00035970  00000-0  10990-2 0  9997,2 52181  97.3575 138.9004 0007690 208.1219 151.9609 15.33769950 50144,2022-033AA,52181,6842.714,93.886,469.841,459.316,1,2023/4/22
GENERATED VIA SPACETRACK.ORG API,18 SPCS,52181,SPACEBEE-131,PAYLOAD,U,22033AA,2023/2/24 18:04,318176,15.33774515,0.0007703,97.3574,138.9653,207.8829,152.2002,0,999,5017,0.0010798,0.00035342,0,3835059,0 SPACEBEE-131,1 52181U 22033AA  23055.75334859  .00035342  00000-0  10798-2 0  9990,2 52181  97.3574 138.9653 0007703 207.8829 152.2002 15.33774515 50178,2022-033AA,52181,6842.7,93.886,469.836,459.294,1,2023/4/23
GENERATED VIA SPACETRACK.ORG API,18 SPCS,52181,SPACEBEE-131,PAYLOAD,U,22033AA,2023/2/25 5:02,497824,15.33811514,0.0007744,97.3571,139.42,206.2953,153.7897,0,999,5024,0.0011399,0.00037368,0,3837605,0 SPACEBEE-131,1 52181U 22033AA  23056.21002891  .00037368  00000-0  11399-2 0  9998,2 52181  97.3571 139.4200 0007744 206.2953 153.7897 15.33811514 50242,2022-033AA,52181,6842.59,93.884,469.754,459.156,1,2023/4/24
GENERATED VIA SPACETRACK.ORG API,18 SPCS,52181,SPACEBEE-131,PAYLOAD,U,22033AA,2023/2/25 17:33,380992,15.33850349,0.0007774,97.3571,139.9399,204.6291,155.4581,0,999,5030,0.0011264,0.00036968,0,3838517,0 SPACEBEE-131,1 52181U 22033AA  23056.73193728  .00036968  00000-0  11264-2 0  9991,2 52181  97.3571 139.9399 0007774 204.6291 155.4581 15.33850349 50301,2022-033AA,52181,6842.474,93.881,469.659,459.02,1,2023/4/25
